satname,norad_id,inclination_deg,eccentricity,mean_motion_rev_per_day,perigee_km,apogee_km,l1,l2
STARLINK-1008,44714,53.0528,0.0001351,15.06413003,546.2360966965489,548.1073151088849,1 44714U 19074B   25279.38205166  .00008306  00000+0  57567-3 0  9996,2 44714  53.0528 159.3335 0001351  90.3239 269.7905 15.06413003325494
STARLINK-1010,44716,53.0469,0.0004944,15.84250852,315.124201243726,321.74577162391233,1 44716U 19074D   25279.11598417  .00179243  00000+0  76188-3 0  9992,2 44716  53.0469 101.3881 0004944 103.9839 256.1734 15.84250852326264
STARLINK-1011,44717,53.0492,0.0006492,15.73943785,343.2720711181082,352.00481795529413,1 44717U 19074E   25278.93062365  .00156751  00000+0  10648-2 0  9997,2 44717  53.0492 157.2555 0006492 118.2010 241.9664 15.73943785325488
STARLINK-1012,44718,53.0523,0.0001989,15.06406465,545.8142958281478,548.569191602397,1 44718U 19074F   25279.35993278  .00003648  00000+0  26362-3 0  9998,2 44718  53.0523 159.4300 0001989  72.1249 287.9957 15.06406465325484
STARLINK-1017,44723,53.0509,0.000486,15.12501784,525.2167062300678,531.9300287072465,1 44723U 19074L   25278.99280321  .00036109  00000+0  20564-2 0  9996,2 44723  53.0509 158.9714 0004860  91.9011 268.2537 15.12501784325465
STARLINK-1019,44724,53.0524,0.000164,15.06402563,546.0679468483077,548.3394585988017,1 44724U 19074M   25279.09085697  .00008649  00000+0  59875-3 0  9994,2 44724  53.0524 160.6426 0001640  69.0018 291.1146 15.06402563325446
STARLINK-1020,44725,53.0553,0.0001409,15.06393892,546.2544938923284,548.2060623913094,1 44725U 19074N   25279.09639671  .00008582  00000+0  59444-3 0  9990,2 44725  53.0553 180.6168 0001409 102.3639 257.7508 15.06393892325160
STARLINK-1021,44726,53.0357,0.0006781,16.13973395,231.48056901497694,240.4506149502231,1 44726U 19074P   25279.89778538  .01027068  68734-3  81622-3 0  9991,2 44726  53.0357  88.4470 0006781 309.7652  50.2786 16.13973395326526
STARLINK-1029,44734,53.0513,0.0003382,16.02195013,266.0934571434882,270.5891350629727,1 44734U 19074X   25279.56127389  .00488564  11800-3  82376-3 0  9996,2 44734  53.0513  15.0016 0003382   1.6269 358.4772 16.02195013327505
STARLINK-1031,44736,53.0527,0.0009271,15.413215,435.8849649907115,448.5312488879972,1 44736U 19074Z   25279.36273345  .00074712  00000+0  17556-2 0  9999,2 44736  53.0527 155.4906 0009271  99.2159 260.9894 15.41321500325552
STARLINK-1036,44741,53.0504,0.0001878,15.0640241,545.903592573195,548.504750717264,1 44741U 19074AE  25279.45761481  .00002273  00000+0  17145-3 0  9996,2 44741  53.0504 178.9982 0001878  81.2262 278.8940 15.06402410325223
STARLINK-1039,44744,53.0524,0.0006713,15.10957016,528.6404402035096,537.9197087677148,1 44744U 19074AH  25279.48119574  .00020211  00000+0  12115-2 0  9995,2 44744  53.0524 197.7968 0006713  67.2829 292.8871 15.10957016324968
STARLINK-1042,44747,53.0466,0.0003496,15.41777192,438.4802243499562,443.2480699520447,1 44747U 19074AL  25279.25596379  .00017639  00000+0  41907-3 0  9997,2 44747  53.0466 111.2178 0003496  72.0340 288.1046 15.41777192326184
STARLINK-1043,44748,53.0537,0.0001322,15.0641449,546.2516233227616,548.0826737396328,1 44748U 19074AM  25279.09822874  .00013500  00000+0  92308-3 0  9996,2 44748  53.0537 200.6085 0001322  86.2465 273.8675 15.06414490324890
STARLINK-1046,44751,53.0524,0.0001343,15.06405682,546.2640715088037,548.1242154539432,1 44751U 19074AQ  25279.04663284  .00015460  00000+0  10544-2 0  9991,2 44751  53.0524 200.8402 0001343  86.5374 273.5769 15.06405682324883
STARLINK-1047,44752,53.0691,0.0005472,15.28527025,476.46193658635093,483.9677168254966,1 44752U 19074AR  25278.93781925  .00009777  00000+0  35955-3 0  9990,2 44752  53.0691 146.7465 0005472  96.8979 263.2642 15.28527025325649
STARLINK-1048,44753,53.0527,0.0001373,15.06408463,546.2347733878541,548.1364669793566,1 44753U 19074AS  25279.40416973  .00009096  00000+0  62860-3 0  9991,2 44753  53.0527 159.2342 0001373  96.5561 263.5584 15.06408463325492
STARLINK-1053,44758,53.0395,0.0001775,15.57221057,394.5016091038715,396.90632264675696,1 44758U 19074AX  25279.60020157  .00048065  00000+0  65132-3 0  9997,2 44758  53.0395 125.9719 0001775 133.0017 227.1143 15.57221057325997
STARLINK-1054,44759,53.0416,0.0008273,15.73472069,343.417258514517,354.5479506122274,1 44759U 19074AY  25278.94758693  .00218583  00000+0  15015-2 0  9995,2 44759  53.0416 157.3643 0008273  89.3737 270.8229 15.73472069323132
STARLINK-1056,44761,53.0401,0.0007108,15.85670604,309.68006273122046,319.1942261349468,1 44761U 19074BA  25279.00002315  .00269564  00000+0  10571-2 0  9996,2 44761  53.0401 145.2226 0007108 101.1003 354.8249 15.85670604  5744
STARLINK-1060,44765,53.0548,0.0001315,15.51563014,411.2690376346063,413.05488626159877,1 44765U 19074BE  25279.00002315  .00520120  00000+0  80812-2 0  9993,2 44765  53.0548 175.1150 0001315  81.6949 311.1605 15.51563014  5777
STARLINK-1063,44768,53.0536,0.0001379,15.06388274,546.292486150458,548.20250719464,1 44768U 19074BH  25279.56635247 -.00003338  00000+0 -20539-3 0  9993,2 44768  53.0536 198.5064 0001379  88.3563 271.7584 15.06388274324972
STARLINK-1067,44771,53.0543,0.0001409,15.06408972,546.2082824495801,548.1598379243414,1 44771U 19074BL  25279.09086635  .00011501  00000+0  78953-3 0  9998,2 44771  53.0543 200.6423 0001409  84.2816 275.8334 15.06408972324895
STARLINK-1068,44772,53.0538,0.0001533,15.06405964,546.1316260657559,548.2549323293579,1 44772U 19074BM  25279.01530517  .00015036  00000+0  10260-2 0  9997,2 44772  53.0538 180.9814 0001533  79.0706 281.0456 15.06405964325154
STARLINK-1112,44925,53.051,2.47e-05,15.48858747,419.8955382065433,420.23136930895816,1 44925U 20001M   25279.28360261  .00078590  00000+0  14292-2 0  9998,2 44925  53.0510 285.7192 0000247  74.1392 285.9643 15.48858747317053
STARLINK-1114,44927,53.0541,0.0001504,15.06406028,546.1515134035853,548.2346526925676,1 44927U 20001P   25279.38574575  .00007842  00000+0  54469-3 0  9999,2 44927  53.0541 319.3199 0001504  80.5978 279.5182 15.06406028316598
STARLINK-1123,44930,53.0552,0.0001314,15.0643407,546.1971631832221,548.0171173432818,1 44930U 20001S   25279.40046386 -.00009599  00000+0 -62577-3 0  9992,2 44930  53.0552 319.2523 0001314  95.8448 264.2691 15.06434070316598
STARLINK-1144,44933,53.0458,0.0012923,15.53996469,396.30539972932365,413.8372800045445,1 44933U 20001V   25279.42898499  .00122406  00000+0  18332-2 0  9997,2 44933  53.0458 262.9779 0012923   2.0656 358.0405 15.53996469318686
STARLINK-1091,44940,53.0375,0.0002813,15.83738959,317.993725703006,321.7620288729686,1 44940U 20001AC  25279.18885067  .00254285  00000+0  10971-2 0  9997,2 44940  53.0375 246.7163 0002813  66.4612 293.6706 15.83738959317589
STARLINK-1094,44941,53.0542,0.0001122,15.06413899,546.3919405039387,547.9459791613253,1 44941U 20001AD  25279.34702294  .00001473  00000+0  11772-3 0  9996,2 44941  53.0542 299.4908 0001122  95.2716 264.8401 15.06413899316865
STARLINK-1096,44942,52.9903,0.0002707,15.80362522,327.59893376568016,331.2304022387352,1 44942U 20001AE  25279.16008404  .00145818  00000+0  74697-3 0  9996,2 44942  52.9903  73.6013 0002707 290.8199  69.2531 15.80362522319998
STARLINK-1122,44949,53.0537,0.0001619,15.06414695,546.0453136059377,548.2877268857937,1 44949U 20001AM  25279.36914408  .00003829  00000+0  27573-3 0  9991,2 44949  53.0537 299.3881 0001619  83.6593 276.4580 15.06414695316863
STARLINK-1080,44961,53.0548,0.0001508,15.06422949,546.0968914953573,548.1855554075491,1 44961U 20001AZ  25279.30092702  .00002729  00000+0  20191-3 0  9990,2 44961  53.0548 279.6980 0001508  90.7004 269.4158 15.06422949317149
STARLINK-1090,44968,53.0546,0.0001405,15.06401815,546.2329845394406,548.1790059211016,1 44968U 20001BG  25279.30464297  .00000737  00000+0  68381-4 0  9990,2 44968  53.0546 279.6802 0001405  93.1438 266.9712 15.06401815317148
STARLINK-1107,44972,53.0116,0.0007603,15.59974938,382.58545678832706,392.87363345684025,1 44972U 20001BL  25279.50125465  .00124332  00000+0  14931-2 0  9996,2 44972  53.0116 203.6598 0007603 116.9484 243.2306 15.59974938318222
STARLINK-1132,45044,53.0559,0.0001189,15.06403166,546.3784318314447,548.0252774110731,1 45044U 20006A   25279.19774015 -.00002299  00000+0 -13551-3 0  9995,2 45044  53.0559 240.1601 0001189  91.2678 268.8447 15.06403166313459
STARLINK-1131,45047,53.0544,0.0001362,15.06405772,546.2506375819103,548.1370977102579,1 45047U 20006D   25279.24020802  .00001733  00000+0  13519-3 0  9996,2 45047  53.0544 260.5094 0001362  92.0826 268.0319 15.06405772313179
STARLINK-1134,45048,53.0383,0.0010921,15.2528379,482.4327794304463,497.43401879618887,1 45048U 20006E   25279.20721982  .00066229  00000+0  25837-2 0  9996,2 45048  53.0383 242.0239 0010921  58.1867 302.0192 15.25283790313438
STARLINK-1156,45054,53.0539,0.0001473,15.06404207,546.17856217588,548.2187660625295,1 45054U 20006L   25279.21065591  .00002502  00000+0  18681-3 0  9995,2 45054  53.0539 260.1041 0001473  91.7503 268.3655 15.06404207313178
STARLINK-1159,45057,53.053,0.0001735,15.06465246,545.8100822814749,548.2131088441356,1 45057U 20006P   25279.22538905  .00024232  00000+0  16372-2 0  9991,2 45057  53.0530 260.0362 0001735  84.1644 275.9542 15.06465246313180
STARLINK-1166,45060,53.0541,0.0001288,15.06399281,546.3217763925086,548.105746748689,1 45060U 20006S   25279.23644583  .00002935  00000+0  21583-3 0  9993,2 45060  53.0541 259.9882 0001288  84.0641 276.0495 15.06399281313183
STARLINK-1169,45061,53.0526,0.0001496,15.0641482,546.1301117958083,548.2021624944418,1 45061U 20006T   25279.24381590  .00002231  00000+0  16858-3 0  9999,2 45061  53.0526 259.9538 0001496  84.9649 275.1511 15.06414820313189
STARLINK-1171,45062,53.0536,0.0001297,15.06423997,546.2398033968084,548.0362197348086,1 45062U 20006U   25279.22907519  .00005835  00000+0  41003-3 0  9996,2 45062  53.0536 260.0168 0001297 110.0316 250.0813 15.06423997313186
